{"type": "FeatureCollection", "features": [ {"type": "Feature", "properties": {"norad_id": 31536, "name": "FENGYUN 1C DEB", "group": "fengyun-1c-debris", "lat": -62.04657639504832, "lon": -83.97154027202659, "alt_km": 924.6950385110276, "timestamp": "2025-12-18T21:31:51.284696+00:00", "meta": {"OBJECT_NAME": "FENGYUN 1C DEB", "OBJECT_ID": "1999-025BYB", "EPOCH": "2025-12-18T05:19:27.902208", "MEAN_MOTION": 14.54390079, "ECCENTRICITY": 0.02945362, "INCLINATION": 98.2372, "RA_OF_ASC_NODE": 259.521, "ARG_OF_PERICENTER": 127.8062, "MEAN_ANOMALY": 235.0196, "EPHEMERIS_TYPE": 0, "CLASSIFICATION_TYPE": "U", "NORAD_CAT_ID": 31536, "ELEMENT_SET_NO": 999, "REV_AT_EPOCH": 96337, "BSTAR": 0.00072957343, "MEAN_MOTION_DOT": 5.508e-05, "MEAN_MOTION_DDOT": 0}, "tle": {"line1": "1 31536U 99025BYB 25352.22185072  .00005508  00000+0  72957-3 0  9997", "line2": "2 31536  98.2372 259.5210 0294536 127.8062 235.0196 14.54390079963376"}}, "geometry": {"type": "Point", "coordinates": [-83.97154027202659, -62.04657639504832]}}, {"type": "Feature", "properties": {"norad_id": 31537, "name": "FENGYUN 1C DEB", "group": "fengyun-1c-debris", "lat": -80.31702256586186, "lon": -139.97973861462302, "alt_km": 620.9264748664882, "timestamp": "2025-12-18T21:31:51.284706+00:00", "meta": {"OBJECT_NAME": "FENGYUN 1C DEB", "OBJECT_ID": "1999-025BYC", "EPOCH": "2025-12-17T05:20:33.052992", "MEAN_MOTION": 14.20381153, "ECCENTRICITY": 0.03486583, "INCLINATION": 99.2923, "RA_OF_ASC_NODE": 144.613, "ARG_OF_PERICENTER": 311.6715, "MEAN_ANOMALY": 45.5094, "EPHEMERIS_TYPE": 0, "CLASSIFICATION_TYPE": "U", "NORAD_CAT_ID": 31537, "ELEMENT_SET_NO": 999, "REV_AT_EPOCH": 93345, "BSTAR": 0.0015959458, "MEAN_MOTION_DOT": 6.271e-05, "MEAN_MOTION_DDOT": 0}, "tle": {"line1": "1 31537U 99025BYC 25351.22260478  .00006271  00000+0  15959-2 0  9997", "line2": "2 31537  99.2923 144.6130 0348658 311.6715  45.5094 14.20381153933451"}}, "geometry": {"type": "Point", "coordinates": [-139.97973861462302, -80.31702256586186]}}, {"type": "Feature", "properties": {"norad_id": 31538, "name": "FENGYUN 1C DEB", "group": "fengyun-1c-debris", "lat": 80.17854554443977, "lon": 165.0333684746801, "alt_km": 574.4477270689085, "timestamp": "2025-12-18T21:31:51.284717+00:00", "meta": {"OBJECT_NAME": "FENGYUN 1C DEB", "OBJECT_ID": "1999-025BYD", "EPOCH": "2025-11-18T21:37:36.814656", "MEAN_MOTION": 14.96885168, "ECCENTRICITY": 0.00235351, "INCLINATION": 98.2479, "RA_OF_ASC_NODE": 190.2519, "ARG_OF_PERICENTER": 356.6213, "MEAN_ANOMALY": 3.4844, "EPHEMERIS_TYPE": 0, "CLASSIFICATION_TYPE": "U", "NORAD_CAT_ID": 31538, "ELEMENT_SET_NO": 999, "REV_AT_EPOCH": 66646, "BSTAR": 0.0047226763, "MEAN_MOTION_DOT": 0.00054817, "MEAN_MOTION_DDOT": 0}, "tle": {"line1": "1 31538U 99025BYD 25322.90112054  .00054817  00000+0  47227-2 0  9999", "line2": "2 31538  98.2479 190.2519 0023535 356.6213   3.4844 14.96885168666469"}}, "geometry": {"type": "Point", "coordinates": [165.0333684746801, 80.17854554443977]}}, {"type": "Feature", "properties": {"norad_id": 31540, "name": "FENGYUN 1C DEB", "group": "fengyun-1c-debris", "lat": 1.7181216259241787, "lon": -26.772006731806343, "alt_km": 706.4640700770879, "timestamp": "2025-12-18T21:31:51.284727+00:00", "meta": {"OBJECT_NAME": "FENGYUN 1C DEB", "OBJECT_ID": "1999-025BYF", "EPOCH": "2025-12-17T16:50:42.753408", "MEAN_MOTION": 14.65440334, "ECCENTRICITY": 0.0176642, "INCLINATION": 99.0563, "RA_OF_ASC_NODE": 151.6373, "ARG_OF_PERICENTER": 285.8233, "MEAN_ANOMALY": 72.3556, "EPHEMERIS_TYPE": 0, "CLASSIFICATION_TYPE": "U", "NORAD_CAT_ID": 31540, "ELEMENT_SET_NO": 999, "REV_AT_EPOCH": 98374, "BSTAR": 0.00065590191, "MEAN_MOTION_DOT": 4.401e-05, "MEAN_MOTION_DDOT": 0}, "tle": {"line1": "1 31540U 99025BYF 25351.70188372  .00004401  00000+0  65590-3 0  9996", "line2": "2 31540  99.0563 151.6373 0176642 285.8233  72.3556 14.65440334983743"}}, "geometry": {"type": "Point", "coordinates": [-26.772006731806343, 1.7181216259241787]}}, {"type": "Feature", "properties": {"norad_id": 31541, "name": "FENGYUN 1C DEB", "group": "fengyun-1c-debris", "lat": 0.8107807179645027, "lon": -43.9678960717664, "alt_km": 626.2408363008253, "timestamp": "2025-12-18T21:31:51.284737+00:00", "meta": {"OBJECT_NAME": "FENGYUN 1C DEB", "OBJECT_ID": "1999-025BYG", "EPOCH": "2025-12-17T08:44:47.998752", "MEAN_MOTION": 14.68902508, "ECCENTRICITY": 0.00784699, "INCLINATION": 98.9791, "RA_OF_ASC_NODE": 134.2215, "ARG_OF_PERICENTER": 225.9968, "MEAN_ANOMALY": 133.4749, "EPHEMERIS_TYPE": 0, "CLASSIFICATION_TYPE": "U", "NORAD_CAT_ID": 31541, "ELEMENT_SET_NO": 999, "REV_AT_EPOCH": 98491, "BSTAR": 0.0011075136, "MEAN_MOTION_DOT": 6.731e-05, "MEAN_MOTION_DDOT": 0}, "tle": {"line1": "1 31541U 99025BYG 25351.36444443  .00006731  00000+0  11075-2 0  9999", "line2": "2 31541  98.9791 134.2215 0078469 225.9968 133.4749 14.68902508984917"}}, "geometry": {"type": "Point", "coordinates": [-43.9678960717664, 0.8107807179645027]}}, {"type": "Feature", "properties": {"norad_id": 31542, "name": "FENGYUN 1C DEB", "group": "fengyun-1c-debris", "lat": 65.31564171707825, "lon": -113.61593234286622, "alt_km": 801.1398238605279, "timestamp": "2025-12-18T21:31:51.284747+00:00", "meta": {"OBJECT_NAME": "FENGYUN 1C DEB", "OBJECT_ID": "1999-025BYH", "EPOCH": "2025-12-17T14:37:07.400352", "MEAN_MOTION": 14.2282267, "ECCENTRICITY": 0.0047729, "INCLINATION": 98.7317, "RA_OF_ASC_NODE": 45.5728, "ARG_OF_PERICENTER": 193.2055, "MEAN_ANOMALY": 166.7877, "EPHEMERIS_TYPE": 0, "CLASSIFICATION_TYPE": "U", "NORAD_CAT_ID": 31542, "ELEMENT_SET_NO": 999, "REV_AT_EPOCH": 96009, "BSTAR": 0.00099429608, "MEAN_MOTION_DOT": 2.214e-05, "MEAN_MOTION_DDOT": 0}, "tle": {"line1": "1 31542U 99025BYH 25351.60911343  .00002214  00000+0  99430-3 0  9999", "line2": "2 31542  98.7317  45.5728 0047729 193.2055 166.7877 14.22822670960097"}}, "geometry": {"type": "Point", "coordinates": [-113.61593234286622, 65.31564171707825]}}, {"type": "Feature", "properties": {"norad_id": 31544, "name": "FENGYUN 1C DEB", "group": "fengyun-1c-debris", "lat": 16.642540962106303, "lon": 41.42635151479505, "alt_km": 858.5273357352862, "timestamp": "2025-12-18T21:31:51.284757+00:00", "meta": {"OBJECT_NAME": "FENGYUN 1C DEB", "OBJECT_ID": "1999-025BYK", "EPOCH": "2025-12-18T02:46:29.945568", "MEAN_MOTION": 14.14348773, "ECCENTRICITY": 0.0031995, "INCLINATION": 98.8286, "RA_OF_ASC_NODE": 43.3169, "ARG_OF_PERICENTER": 253.3085, "MEAN_ANOMALY": 106.4575, "EPHEMERIS_TYPE": 0, "CLASSIFICATION_TYPE": "U", "NORAD_CAT_ID": 31544, "ELEMENT_SET_NO": 999, "REV_AT_EPOCH": 95833, "BSTAR": 0.00059861025, "MEAN_MOTION_DOT": 1.106e-05, "MEAN_MOTION_DDOT": 0}, "tle": {"line1": "1 31544U 99025BYK 25352.11562437  .00001106  00000+0  59861-3 0  9997", "line2": "2 31544  98.8286  43.3169 0031995 253.3085 106.4575 14.14348773958337"}}, "geometry": {"type": "Point", "coordinates": [41.42635151479505, 16.642540962106303]}}, {"type": "Feature", "properties": {"norad_id": 31546, "name": "FENGYUN 1C DEB", "group": "fengyun-1c-debris", "lat": 23.850890225809522, "lon": -114.39758894333804, "alt_km": 762.5740553824398, "timestamp": "2025-12-18T21:31:51.284767+00:00", "meta": {"OBJECT_NAME": "FENGYUN 1C DEB", "OBJECT_ID": "1999-025BYM", "EPOCH": "2025-12-18T03:48:53.349984", "MEAN_MOTION": 14.13165118, "ECCENTRICITY": 0.01460425, "INCLINATION": 98.2442, "RA_OF_ASC_NODE": 61.2469, "ARG_OF_PERICENTER": 121.3915, "MEAN_ANOMALY": 240.1639, "EPHEMERIS_TYPE": 0, "CLASSIFICATION_TYPE": "U", "NORAD_CAT_ID": 31546, "ELEMENT_SET_NO": 999, "REV_AT_EPOCH": 94865, "BSTAR": 0.0011596189, "MEAN_MOTION_DOT": 2.363e-05, "MEAN_MOTION_DDOT": 0}, "tle": {"line1": "1 31546U 99025BYM 25352.15895081  .00002363  00000+0  11596-2 0  9995", "line2": "2 31546  98.2442  61.2469 0146042 121.3915 240.1639 14.13165118948655"}}, "geometry": {"type": "Point", "coordinates": [-114.39758894333804, 23.850890225809522]}}, {"type": "Feature", "properties": {"norad_id": 31547, "name": "FENGYUN 1C DEB", "group": "fengyun-1c-debris", "lat": 32.75193083729409, "lon": -137.22711569496488, "alt_km": 811.3927636943508, "timestamp": "2025-12-18T21:31:51.284777+00:00", "meta": {"OBJECT_NAME": "FENGYUN 1C DEB", "OBJECT_ID": "1999-025BYN", "EPOCH": "2025-12-09T09:02:48.494688", "MEAN_MOTION": 14.23103077, "ECCENTRICITY": 0.00537834, "INCLINATION": 99.0872, "RA_OF_ASC_NODE": 27.0415, "ARG_OF_PERICENTER": 262.539, "MEAN_ANOMALY": 96.9674, "EPHEMERIS_TYPE": 0, "CLASSIFICATION_TYPE": "U", "NORAD_CAT_ID": 31547, "ELEMENT_SET_NO": 999, "REV_AT_EPOCH": 63969, "BSTAR": 0.0021137662, "MEAN_MOTION_DOT": 4.797e-05, "MEAN_MOTION_DDOT": 0}, "tle": {"line1": "1 31547U 99025BYN 25343.37695017  .00004797  00000+0  21138-2 0  9993", "line2": "2 31547  99.0872  27.0415 0053783 262.5390  96.9674 14.23103077639691"}}, "geometry": {"type": "Point", "coordinates": [-137.22711569496488, 32.75193083729409]}}, {"type": "Feature", "properties": {"norad_id": 31550, "name": "FENGYUN 1C DEB", "group": "fengyun-1c-debris", "lat": -16.476287155615708, "lon": -5.339568657398123, "alt_km": 758.2781700723344, "timestamp": "2025-12-18T21:31:51.284788+00:00", "meta": {"OBJECT_NAME": "FENGYUN 1C DEB", "OBJECT_ID": "1999-025BYR", "EPOCH": "2025-12-18T06:36:07.648992", "MEAN_MOTION": 14.402402, "ECCENTRICITY": 0.01900394, "INCLINATION": 98.3109, "RA_OF_ASC_NODE": 351.5783, "ARG_OF_PERICENTER": 256.0402, "MEAN_ANOMALY": 101.959, "EPHEMERIS_TYPE": 0, "CLASSIFICATION_TYPE": "U", "NORAD_CAT_ID": 31550, "ELEMENT_SET_NO": 999, "REV_AT_EPOCH": 65534, "BSTAR": 0.00057475877, "MEAN_MOTION_DOT": 2.2e-05, "MEAN_MOTION_DDOT": 0}, "tle": {"line1": "1 31550U 99025BYR 25352.27508853  .00002200  00000+0  57476-3 0  9999", "line2": "2 31550  98.3109 351.5783 0190039 256.0402 101.9590 14.40240200655344"}}, "geometry": {"type": "Point", "coordinates": [-5.339568657398123, -16.476287155615708]}}]}